{
    "links": {
        "self": "http://www.neowsapp.com/rest/v1/neo/3363353?api_key=iIulBulltgU6a56xZRHN4H3l9WmuAYTsLGpBGhQ2"
    },
    "id": "3363353",
    "neo_reference_id": "3363353",
    "name": "(2006 XK1)",
    "designation": "2006 XK1",
    "nasa_jpl_url": "http://ssd.jpl.nasa.gov/sbdb.cgi?sstr=3363353",
    "absolute_magnitude_h": 19.3,
    "estimated_diameter": {
        "kilometers": {
            "estimated_diameter_min": 0.3669061375,
            "estimated_diameter_max": 0.8204270649
        },
        "meters": {
            "estimated_diameter_min": 366.9061375314,
            "estimated_diameter_max": 820.4270648822
        },
        "miles": {
            "estimated_diameter_min": 0.2279848336,
            "estimated_diameter_max": 0.5097895857
        },
        "feet": {
            "estimated_diameter_min": 1203.7603322587,
            "estimated_diameter_max": 2691.6899315481
        }
    },
    "is_potentially_hazardous_asteroid": false,
    "close_approach_data": [
        {
            "close_approach_date": "2007-01-13",
            "close_approach_date_full": "2007-Jan-13 22:55",
            "epoch_date_close_approach": 1168728900000,
            "relative_velocity": {
                "kilometers_per_second": "15.9936669238",
                "kilometers_per_hour": "57577.2009257621",
                "miles_per_hour": "35776.2335418992"
            },
            "miss_distance": {
                "astronomical": "0.2220065206",
                "lunar": "86.3605365134",
                "kilometers": "33211702.607871122",
                "miles": "20636795.0596286036"
            },
            "orbiting_body": "Earth"
        }
    ],
    "orbital_data": {
        "orbit_id": "12",
        "orbit_determination_date": "2017-04-06 09:07:25",
        "first_observation_date": "2006-12-11",
        "last_observation_date": "2006-12-22",
        "data_arc_in_days": 11,
        "observations_used": 39,
        "orbit_uncertainty": "9",
        "minimum_orbit_intersection": ".185342",
        "jupiter_tisserand_invariant": "3.034",
        "epoch_osculation": "2454083.5",
        "eccentricity": ".700626125310662",
        "semi_major_axis": "2.515908211425858",
        "inclination": "13.15399130338377",
        "ascending_node_longitude": "329.8550083666085",
        "orbital_period": "1457.607572071202",
        "perihelion_distance": ".7531971896172812",
        "perihelion_argument": "173.3333545469367",
        "aphelion_distance": "4.278619233234435",
        "perihelion_time": "2454131.949740076665",
        "mean_anomaly": "348.0338804752399",
        "mean_motion": ".2469800561535602",
        "equinox": "J2000",
        "orbit_class": {
            "orbit_class_type": "APO",
            "orbit_class_description": "Near-Earth asteroid orbits which cross the Earth’s orbit similar to that of 1862 Apollo",
            "orbit_class_range": "a (semi-major axis) > 1.0 AU; q (perihelion) < 1.017 AU"
        }
    },
    "is_sentry_object": false
}